SARAL                   
1 39086U 13009A   24095.94446161  .00000161  00000+0  75760-4 0  9990
2 39086  98.5515 282.0734 0002795 123.4410 236.7041 14.32375513580599
SAPPHIRE                
1 39088U 13009C   24096.12198730  .00000197  00000+0  84594-4 0  9993
2 39088  98.4122 284.8331 0012369 117.6710 242.5732 14.34643230581424
NEOSSAT                 
1 39089U 13009D   24096.11723888  .00000293  00000+0  11740-3 0  9990
2 39089  98.4062 285.4004 0012224 117.6654 242.5773 14.35101855581539
STRAND-1                
1 39090U 13009E   24095.76805389  .00000459  00000+0  17273-3 0  9990
2 39090  98.3834 286.0746 0010010 109.8379 250.3887 14.35961230581708
BRITE-AUSTRIA           
1 39091U 13009F   24095.80089761  .00000278  00000+0  11083-3 0  9996
2 39091  98.3872 285.3714 0011435 116.2586 243.9776 14.35730726581734
SBIRS GEO-2 (USA 241)   
1 39120U 13011A   24095.85286344 -.00000262  00000+0  00000+0 0  9990
2 39120   2.8475  45.8126 0002265 320.8433  96.0105  1.00271440 40483
EUTELSAT 117 WEST A     
1 39122U 13012A   24095.90881896 -.00000020  00000+0  00000+0 0  9994
2 39122   0.0526  68.7937 0002861 310.5406  24.7298  1.00271332 40373
ANIK G1                 
1 39127U 13014A   24095.91073345 -.00000081  00000+0  00000+0 0  9991
2 39127   0.0477  89.8516 0002017 261.6163  62.7856  1.00271097 40199
GAOFEN-1                
1 39150U 13018A   24096.20996718  .00000823  00000+0  12533-3 0  9993
2 39150  97.9934 169.3357 0019171 334.0033  26.0212 14.76481463589795
NEE-01 PEGASO           
1 39151U 13018B   24095.99094371  .00002853  00000+0  34037-3 0  9991
2 39151  98.0257 212.4679 0014135 278.2340  81.7271 14.85014363591111
COSMOS 2485 [GLONASS-M] 
1 39155U 13019A   24096.00985304  .00000090  00000+0  00000+0 0  9994
2 39155  65.0144 100.6439 0024650 237.8525 121.9475  2.13101717 85169
CHINASAT 11 (ZX 11)     
1 39157U 13020A   24096.09469918 -.00000299  00000+0  00000+0 0  9997
2 39157   0.0187 255.0343 0003242  76.7462 354.1068  1.00271062 40097
PROBA-V                 
1 39159U 13021A   24096.03131813  .00000112  00000+0  67627-4 0  9990
2 39159  98.3099 106.6186 0003617 342.8104  17.2953 14.23231283566850
VNREDSAT 1              
1 39160U 13021B   24096.16866502  .00000723  00000+0  14873-3 0  9998
2 39160  98.0025 165.1632 0001508 106.9105 253.2263 14.63351012582773
ESTCUBE 1               
1 39161U 13021C   24096.13396948  .00001774  00000+0  26537-3 0  9995
2 39161  97.8343 164.8326 0010430 105.9442 254.2918 14.75871071586358
EUTELSAT 7B             
1 39163U 13022A   24095.85396628  .00000040  00000+0  00000+0 0  9999
2 39163   0.0694  16.2570 0005991 352.7731 139.0326  1.00272051 39910
NAVSTAR 68 (USA 242)    
1 39166U 13023A   24095.47183583 -.00000001  00000+0  00000+0 0  9993
2 39166  55.1767 301.5486 0123771  43.8423 317.1693  2.00563092 79766
WGS F5 (USA 243)        
1 39168U 13024A   24096.24223519 -.00000293  00000+0  00000+0 0  9999
2 39168   0.0019 183.9993 0001019 178.8283 225.8916  1.00271190 39779
SES-6                   
1 39172U 13026A   24095.85242832 -.00000269  00000+0  00000+0 0  9994
2 39172   0.0458 296.7691 0002068  71.1813  92.0684  1.00271674 39670
COSMOS 2486             
1 39177U 13028A   24096.24393865  .00000304  00000+0  79880-4 0  9994
2 39177  97.9235  89.2795 0011169   6.9144 353.2207 14.55291374574555
RESURS-P 1              
1 39186U 13030A   24096.18525163  .00036653  00000+0  42914-3 0  9991
2 39186  97.0224 146.5505 0010294 107.9151 252.3231 15.61400485604034
O3B FM5                 
1 39188U 13031A   24095.71757289 -.00000018  00000+0  00000+0 0  9991
2 39188   0.0526  22.1253 0002775 347.4630 350.4155  5.00114904196842
O3B FM4                 
1 39189U 13031B   24094.57369749 -.00000017  00000+0  00000+0 0  9994
2 39189   0.0613 355.1636 0002803  12.2664 352.5730  5.00114900196804
O3B FM2                 
1 39190U 13031C   24095.66519492 -.00000018  00000+0  00000+0 0  9990
2 39190   0.0647 351.8158 0002666  20.3043 347.8848  5.00115406196914
O3B PFM                 
1 39191U 13031D   24095.89063718 -.00000018  00000+0  00000+0 0  9991
2 39191   0.0525  12.3543 0002529   1.2609 346.3901  5.00116160196474
IRIS                    
1 39197U 13033A   24095.83390052  .00001458  00000+0  19094-3 0  9992
2 39197  97.9669 286.8655 0027308  60.9079 299.4863 14.81656998581224
IRNSS-1A                
1 39199U 13034A   24095.51350103  .00000099  00000+0  00000+0 0  9996
2 39199  33.9135  75.5276 0018507 188.4476 169.1618  1.00273931 39301
SJ-11-05                
1 39202U 13035A   24096.22216762  .00000852  00000+0  17745-3 0  9998
2 39202  98.2460 267.0717 0010073 225.3702 134.6678 14.62523934571758
MUOS-2                  
1 39206U 13036A   24096.16264859  .00000059  00000+0  00000+0 0  9997
2 39206   3.5070  39.4449 0048679 182.5391 213.4679  1.00270602 39252
SHIYAN 7 (SY-7)         
1 39208U 13037A   24095.88593608  .00000842  00000+0  14876-3 0  9995
2 39208  98.0642  94.4006 0008187 175.1285 185.0002 14.69959884574082
CHUANGXIN-3 (CX-3)      
1 39209U 13037B   24095.91812751  .00001432  00000+0  24192-3 0  9991
2 39209  98.0655  95.4331 0004757 159.9664 200.1730 14.70909323574092
SHIJIAN-15 (SJ-15)      
1 39210U 13037C   24096.25287645  .00000604  00000+0  11105-3 0  9999
2 39210  98.0785  94.0620 0006600 168.8144 191.3209 14.69150295576329
ALPHASAT                
1 39215U 13038A   24096.15178598  .00000128  00000+0  00000+0 0  9999
2 39215   2.8818   8.1218 0001876  39.1278 226.2044  1.00270603 39215
INSAT-3D                
1 39216U 13038B   24096.09156637 -.00000164  00000+0  00000+0 0  9994
2 39216   0.0678  84.9890 0001726 228.7713 355.1817  1.00271302 39253
WGS F6 (USA 244)        
1 39222U 13041A   24096.19639635  .00000081  00000+0  00000+0 0  9997
2 39222   0.0168 212.7703 0000096 296.7564 339.9570  1.00271139 39014
ARIRANG-5 (KOMPSAT-5)   
1 39227U 13042A   24096.14396401  .00002429  00000+0  17776-3 0  9999
2 39227  97.6198 283.0663 0000716  23.6202 336.5057 15.04511665583179
ES'HAIL 1               
1 39233U 13044A   24096.15187302  .00000135  00000+0  00000+0 0  9997
2 39233   0.0579  26.1113 0002379   0.5775 247.4149  1.00274070 38847
GSAT-7                  
1 39234U 13044B   24096.08999995 -.00000085  00000+0  00000+0 0  9994
2 39234   0.0787  87.1188 0007312 201.7085  11.4562  1.00271020 38849
AMOS-4                  
1 39237U 13045A   24096.15970505 -.00000001  00000+0  00000+0 0  9990
2 39237   0.0129 210.1083 0003332 152.1216 314.1966  1.00271643 38838
YAOGAN-17 01A           
1 39239U 13046A   24095.91531361  .00000005  00000+0  11004-3 0  9992
2 39239  63.3965   0.5178 0355229   8.4563 352.2237 13.45327339520217
YAOGAN-17 01B           
1 39240U 13046B   24095.86586864 -.00000017  00000+0  85204-4 0  9994
2 39240  63.3977   1.0709 0355271   8.0960 352.5594 13.45282523520250
YAOGAN-17 01C           
1 39241U 13046C   24095.92019581 -.00000004  00000+0  99827-4 0  9991
2 39241  63.3973 359.8244 0356021   8.1399 352.5196 13.45311241520300
GONETS-M 5              
1 39249U 13048A   24095.91180829  .00000032  00000+0  16279-3 0  9993
2 39249  82.4778 124.1445 0017257 160.6382 199.5357 12.42891844479095
GONETS-M 6              
1 39250U 13048B   24095.88462515  .00000059  00000+0  35500-3 0  9993
2 39250  82.4808 124.9934 0018752 193.9315 166.1250 12.42989763479144
GONETS-M 7              
1 39251U 13048C   24095.88311691  .00000066  00000+0  40261-3 0  9990
2 39251  82.4850 126.6506 0017814 161.5977 198.5750 12.42869733479046
HISAKI (SPRINT-A)       
1 39253U 13049A   24095.94854651  .00000150  00000+0  11649-3 0  9990
2 39253  29.7221 343.2568 0136818 345.4632  14.2031 13.55379584522361
AEHF-3 (USA 246)        
1 39256U 13050A   24095.75809586  .00000129  00000+0  00000+0 0  9992
2 39256   3.2961  73.1877 0047616 183.2977  54.9176  1.00269292 37612
FENGYUN 3C              
1 39260U 13052A   24096.25443778  .00000157  00000+0  99822-4 0  9998
2 39260  98.4300  99.7277 0011218 171.2620 188.8752 14.16171918545001
CASSIOPE                
1 39265U 13055A   24095.92435285  .00029149  00000+0  62560-3 0  9993
2 39265  80.9521 277.1571 0513630 134.2061 230.2553 14.66182146547642
POPACS 1                
1 39268U 13055D   24094.71254141  .00023784  00000+0  44549-3 0  9998
2 39268  80.9827 236.2894 0430258 331.1498  26.6512 14.86304112550922
POPACS 2                
1 39269U 13055E   24095.86199085  .00015841  00000+0  37473-3 0  9994
2 39269  81.0039 318.8356 0563134 186.1378 173.2726 14.53774876544937
POPACS 3                
1 39270U 13055F   24096.17588048  .00011266  00000+0  31518-3 0  9993
2 39270  81.0141   6.8315 0634595 320.9627  34.7321 14.35184341543187
ASTRA 2E                
1 39285U 13056A   24095.86609086  .00000142  00000+0  00000+0 0  9990
2 39285   0.0767 322.5115 0002909  46.0553 165.3537  1.00269615 38383
SHIJIAN-16 (SJ-16)      
1 39358U 13057A   24096.19421482  .00001374  00000+0  15090-3 0  9998
2 39358  74.9718  73.3324 0017503   9.5219 350.6295 14.88378662566752
FM-6                    
1 39360U 13058A   24095.69422128 -.00000025  00000+0  00000+0 0  9998
2 39360   0.0182 237.4897 0000770  13.4342  76.3112  1.00274508 38003
RADUGA-1M 3             
1 39375U 13062A   24095.72424406  .00000150  00000+0  00000+0 0  9992
2 39375   3.9057  82.1753 0001862 164.3252 242.7624  1.00270367 38058
YAOGAN-19               
1 39410U 13065A   24096.22232583 -.00000015  00000+0  70186-4 0  9992
2 39410 100.0459 100.6855 0009937 136.3046 223.8856 13.15521512498106
APRIZESAT 7             
1 39416U 13066A   24095.84197370  .00002125  00000+0  24041-3 0  9991
2 39416  97.6633  57.5596 0038738 353.1814   6.8870 14.86956007561636
ZACUBE-1 (TSHEPISOSAT)  
1 39417U 13066B   24095.85915171  .00004493  00000+0  48127-3 0  9991
2 39417  97.7268  53.5616 0053119  44.6054 315.9418 14.88133256560679
